{
  "type": "FeatureCollection",
  "features": [
    {
      "type": "Feature",
      "properties": {
        "norad_id": 66598,
        "name": "STARLINK-35981",
        "group": "last-30-days",
        "lat": -37.381431602993025,
        "lon": 130.568024020877,
        "alt_km": 417.73281731532006,
        "timestamp": "2025-12-13T22:39:28.444347+00:00",
        "meta_object_name": "STARLINK-35981",
        "meta_object_id": "2025-270L",
        "meta_epoch": "2025-12-13T06:00:02.000160",
        "meta_mean_motion": 15.50672913,
        "meta_eccentricity": 0.00016675,
        "meta_inclination": 43,
        "meta_ra_of_asc_node": 189.7055,
        "meta_arg_of_pericenter": 263.059,
        "meta_mean_anomaly": 115.2386,
        "meta_ephemeris_type": 0,
        "meta_classification_type": "U",
        "meta_norad_cat_id": 66598,
        "meta_element_set_no": 999,
        "meta_rev_at_epoch": 432,
        "meta_bstar": -0.0035886268,
        "meta_mean_motion_dot": -0.00206119,
        "meta_mean_motion_ddot": 0,
        "tle_line1": "1 66598U 25270L   25347.25002315 -.00206119  00000+0 -35886-2 0  9991",
        "tle_line2": "2 66598  43.0000 189.7055 0001667 263.0590 115.2386 15.50672913  4327"
      },
      "geometry": {
        "type": "Point",
        "coordinates": [
          130.568024020877,
          -37.381431602993025
        ]
      }
    },
    {
      "type": "Feature",
      "properties": {
        "norad_id": 66599,
        "name": "STARLINK-35930",
        "group": "last-30-days",
        "lat": -36.628024130599556,
        "lon": 132.72070922369775,
        "alt_km": 418.48948166602895,
        "timestamp": "2025-12-13T22:39:28.444357+00:00",
        "meta_object_name": "STARLINK-35930",
        "meta_object_id": "2025-270M",
        "meta_epoch": "2025-12-13T06:00:02.000160",
        "meta_mean_motion": 15.50711397,
        "meta_eccentricity": 5.622e-05,
        "meta_inclination": 42.9999,
        "meta_ra_of_asc_node": 189.7014,
        "meta_arg_of_pericenter": 266.4002,
        "meta_mean_anomaly": 113.8059,
        "meta_ephemeris_type": 0,
        "meta_classification_type": "U",
        "meta_norad_cat_id": 66599,
        "meta_element_set_no": 999,
        "meta_rev_at_epoch": 448,
        "meta_bstar": -0.0047240367,
        "meta_mean_motion_dot": -0.00269401,
        "meta_mean_motion_ddot": 0,
        "tle_line1": "1 66599U 25270M   25347.25002315 -.00269401  00000+0 -47240-2 0  9992",
        "tle_line2": "2 66599  42.9999 189.7014 0000562 266.4002 113.8059 15.50711397  4484"
      },
      "geometry": {
        "type": "Point",
        "coordinates": [
          132.72070922369775,
          -36.628024130599556
        ]
      }
    },
    {
      "type": "Feature",
      "properties": {
        "norad_id": 66600,
        "name": "STARLINK-35980",
        "group": "last-30-days",
        "lat": -35.79697791877941,
        "lon": 134.9309145418081,
        "alt_km": 416.8491932454144,
        "timestamp": "2025-12-13T22:39:28.444369+00:00",
        "meta_object_name": "STARLINK-35980",
        "meta_object_id": "2025-270N",
        "meta_epoch": "2025-12-13T06:00:02.000160",
        "meta_mean_motion": 15.50650481,
        "meta_eccentricity": 0.0002868,
        "meta_inclination": 42.9999,
        "meta_ra_of_asc_node": 189.6955,
        "meta_arg_of_pericenter": 267.1264,
        "meta_mean_anomaly": 115.0118,
        "meta_ephemeris_type": 0,
        "meta_classification_type": "U",
        "meta_norad_cat_id": 66600,
        "meta_element_set_no": 999,
        "meta_rev_at_epoch": 438,
        "meta_bstar": -0.002942873,
        "meta_mean_motion_dot": -0.00169763,
        "meta_mean_motion_ddot": 0,
        "tle_line1": "1 66600U 25270N   25347.25002315 -.00169763  00000+0 -29429-2 0  9994",
        "tle_line2": "2 66600  42.9999 189.6955 0002868 267.1264 115.0118 15.50650481  4384"
      },
      "geometry": {
        "type": "Point",
        "coordinates": [
          134.9309145418081,
          -35.79697791877941
        ]
      }
    },
    {
      "type": "Feature",
      "properties": {
        "norad_id": 66601,
        "name": "STARLINK-35978",
        "group": "last-30-days",
        "lat": -34.95499094443633,
        "lon": 137.02571927863352,
        "alt_km": 417.5541197239718,
        "timestamp": "2025-12-13T22:39:28.444379+00:00",
        "meta_object_name": "STARLINK-35978",
        "meta_object_id": "2025-270P",
        "meta_epoch": "2025-12-13T06:00:02.000160",
        "meta_mean_motion": 15.50668125,
        "meta_eccentricity": 0.00015132,
        "meta_inclination": 42.9999,
        "meta_ra_of_asc_node": 189.6908,
        "meta_arg_of_pericenter": 277.4216,
        "meta_mean_anomaly": 106.6193,
        "meta_ephemeris_type": 0,
        "meta_classification_type": "U",
        "meta_norad_cat_id": 66601,
        "meta_element_set_no": 999,
        "meta_rev_at_epoch": 432,
        "meta_bstar": -0.003203892,
        "meta_mean_motion_dot": -0.00184525,
        "meta_mean_motion_ddot": 0,
        "tle_line1": "1 66601U 25270P   25347.25002315 -.00184525  00000+0 -32039-2 0  9999",
        "tle_line2": "2 66601  42.9999 189.6908 0001513 277.4216 106.6193 15.50668125  4327"
      },
      "geometry": {
        "type": "Point",
        "coordinates": [
          137.02571927863352,
          -34.95499094443633
        ]
      }
    },
    {
      "type": "Feature",
      "properties": {
        "norad_id": 66602,
        "name": "STARLINK-36050",
        "group": "last-30-days",
        "lat": -41.61711428003661,
        "lon": 78.17297433539717,
        "alt_km": 449.4457392432196,
        "timestamp": "2025-12-13T22:39:28.444392+00:00",
        "meta_object_name": "STARLINK-36050",
        "meta_object_id": "2025-270Q",
        "meta_epoch": "2025-12-13T06:00:02.000160",
        "meta_mean_motion": 15.42853693,
        "meta_eccentricity": 0.0001403,
        "meta_inclination": 42.9997,
        "meta_ra_of_asc_node": 189.7456,
        "meta_arg_of_pericenter": 265.3078,
        "meta_mean_anomaly": 96.2055,
        "meta_ephemeris_type": 0,
        "meta_classification_type": "U",
        "meta_norad_cat_id": 66602,
        "meta_element_set_no": 999,
        "meta_rev_at_epoch": 438,
        "meta_bstar": -0.055070349,
        "meta_mean_motion_dot": -0.02218391,
        "meta_mean_motion_ddot": 0,
        "tle_line1": "1 66602U 25270Q   25347.25002315 -.02218391  00000+0 -55070-1 0  9990",
        "tle_line2": "2 66602  42.9997 189.7456 0001403 265.3078  96.2055 15.42853693  4389"
      },
      "geometry": {
        "type": "Point",
        "coordinates": [
          78.17297433539717,
          -41.61711428003661
        ]
      }
    },
    {
      "type": "Feature",
      "properties": {
        "norad_id": 66603,
        "name": "STARLINK-36048",
        "group": "last-30-days",
        "lat": -33.198460180786974,
        "lon": 141.01737677367967,
        "alt_km": 418.1160804606343,
        "timestamp": "2025-12-13T22:39:28.444405+00:00",
        "meta_object_name": "STARLINK-36048",
        "meta_object_id": "2025-270R",
        "meta_epoch": "2025-12-13T06:00:02.000160",
        "meta_mean_motion": 15.5075907,
        "meta_eccentricity": 0.00016798,
        "meta_inclination": 43,
        "meta_ra_of_asc_node": 189.6813,
        "meta_arg_of_pericenter": 254.014,
        "meta_mean_anomaly": 133.8541,
        "meta_ephemeris_type": 0,
        "meta_classification_type": "U",
        "meta_norad_cat_id": 66603,
        "meta_element_set_no": 999,
        "meta_rev_at_epoch": 438,
        "meta_bstar": -0.0062325736,
        "meta_mean_motion_dot": -0.00352281,
        "meta_mean_motion_ddot": 0,
        "tle_line1": "1 66603U 25270R   25347.25002315 -.00352281  00000+0 -62326-2 0  9999",
        "tle_line2": "2 66603  43.0000 189.6813 0001679 254.0140 133.8541 15.50759070  4384"
      },
      "geometry": {
        "type": "Point",
        "coordinates": [
          141.01737677367967,
          -33.198460180786974
        ]
      }
    },
    {
      "type": "Feature",
      "properties": {
        "norad_id": 66604,
        "name": "STARLINK-35977",
        "group": "last-30-days",
        "lat": -32.23807411600183,
        "lon": 143.02334564380556,
        "alt_km": 417.7877777949625,
        "timestamp": "2025-12-13T22:39:28.444416+00:00",
        "meta_object_name": "STARLINK-35977",
        "meta_object_id": "2025-270S",
        "meta_epoch": "2025-12-13T06:00:02.000160",
        "meta_mean_motion": 15.50717386,
        "meta_eccentricity": 0.00017565,
        "meta_inclination": 42.9999,
        "meta_ra_of_asc_node": 189.6768,
        "meta_arg_of_pericenter": 260.2483,
        "meta_mean_anomaly": 129.5475,
        "meta_ephemeris_type": 0,
        "meta_classification_type": "U",
        "meta_norad_cat_id": 66604,
        "meta_element_set_no": 999,
        "meta_rev_at_epoch": 448,
        "meta_bstar": -0.0050098716,
        "meta_mean_motion_dot": -0.00285217,
        "meta_mean_motion_ddot": 0,
        "tle_line1": "1 66604U 25270S   25347.25002315 -.00285217  00000+0 -50099-2 0  9998",
        "tle_line2": "2 66604  42.9999 189.6768 0001756 260.2483 129.5475 15.50717386  4487"
      },
      "geometry": {
        "type": "Point",
        "coordinates": [
          143.02334564380556,
          -32.23807411600183
        ]
      }
    }
  ]
}